[{"OBJECT_NAME":"JIAOTONG 5 (HEAD-2H)","OBJECT_ID":"2022-167K","EPOCH":"2026-03-09T23:22:06.822048","MEAN_MOTION":15.70872056,"ECCENTRICITY":0.00036843,"INCLINATION":97.6162,"RA_OF_ASC_NODE":251.2696,"ARG_OF_PERICENTER":321.7019,"MEAN_ANOMALY":38.3981,"EPHEMERIS_TYPE":0,"CLASSIFICATION_TYPE":"U","NORAD_CAT_ID":54691,"ELEMENT_SET_NO":999,"REV_AT_EPOCH":18142,"BSTAR":0.0011277683,"MEAN_MOTION_DOT":0.00142368,"MEAN_MOTION_DDOT":0},{"OBJECT_NAME":"STARLINK-11467 [DTC]","OBJECT_ID":"2024-217M","EPOCH":"2026-03-09T10:15:45.847008","MEAN_MOTION":15.69708704,"ECCENTRICITY":0.00012147,"INCLINATION":53.1579,"RA_OF_ASC_NODE":72.4555,"ARG_OF_PERICENTER":62.0244,"MEAN_ANOMALY":298.0897,"EPHEMERIS_TYPE":0,"CLASSIFICATION_TYPE":"U","NORAD_CAT_ID":62068,"ELEMENT_SET_NO":999,"REV_AT_EPOCH":7513,"BSTAR":0.0013015098,"MEAN_MOTION_DOT":0.00160157,"MEAN_MOTION_DDOT":0}]
